[
    {
        "name": "Afghanistan",
        "code": "AF",
        "capital": "Kabul",
        "region": "AS",
        "flag": "https://restcountries.eu/data/afg.svg",
        "dialling_code": "+93"
    },
    {
        "name": "Albania",
        "code": "AL",
        "capital": "Tirana",
        "region": "EU",
        "flag": "https://restcountries.eu/data/alb.svg",
        "dialling_code": "+355"
    },
    {
        "name": "Algeria",
        "code": "DZ",
        "capital": "Algiers",
        "region": "AF",
        "flag": "https://restcountries.eu/data/dza.svg",
        "dialling_code": "+213"
    },
    {
        "name": "American Samoa",
        "code": "AS",
        "capital": "Pago Pago",
        "region": "OC",
        "flag": "https://restcountries.eu/data/asm.svg",
        "dialling_code": "+1"
    },
    {
        "name": "Andorra",
        "code": "AD",
        "capital": "Andorra la Vella",
        "region": "EU",
        "flag": "https://restcountries.eu/data/and.svg",
        "dialling_code": "+376"
    },
    {
        "name": "Angola",
        "code": "AO",
        "capital": "Luanda",
        "region": "AF",
        "flag": "https://restcountries.eu/data/ago.svg",
        "dialling_code": "+244"
    },
    {
        "name": "Anguilla",
        "code": "AI",
        "capital": "The Valley",
        "region": "NA",
        "flag": "https://restcountries.eu/data/aia.svg",
        "dialling_code": "+43"
    },
    {
        "name": "Antigua and Barbuda",
        "code": "AG",
        "capital": "Saint John's",
        "region": "NA",
        "flag": "https://restcountries.eu/data/atg.svg",
        "dialling_code": "+1"
    },
    {
        "name": "Argentina",
        "code": "AR",
        "capital": "Buenos Aires",
        "region": "SA",
        "flag": "https://restcountries.eu/data/arg.svg",
        "dialling_code": "+54"
    },
    {
        "name": "Armenia",
        "code": "AM",
        "capital": "Yerevan",
        "region": "AS",
        "flag": "https://restcountries.eu/data/arm.svg",
        "dialling_code": "+374"
    },
    {
        "name": "Aruba",
        "code": "AW",
        "capital": "Oranjestad",
        "region": "SA",
        "flag": "https://restcountries.eu/data/abw.svg",
        "dialling_code": "+297"
    },
    {
        "name": "Australia",
        "code": "AU",
        "capital": "Canberra",
        "region": "OC",
        "flag": "https://restcountries.eu/data/aus.svg",
        "dialling_code": "+61"
    },
    {
        "name": "Azerbaijan",
        "code": "AZ",
        "capital": "Baku",
        "region": "AS",
        "flag": "https://restcountries.eu/data/aze.svg",
        "dialling_code": "+994"
    },
    {
        "name": "Bahamas",
        "code": "BS",
        "capital": "Nassau",
        "region": "NA",
        "flag": "https://restcountries.eu/data/bhs.svg",
        "dialling_code": "+1"
    },
    {
        "name": "Bahrain",
        "code": "BH",
        "capital": "Manama",
        "region": "AS",
        "flag": "https://restcountries.eu/data/bhr.svg",
        "dialling_code": "+973"
    }
]